SHIJIAN-31 (SJ-31)      
1 69570U 26136A   26191.38448411 -.00000099  00000+0  00000+0 0  9994
2 69570  63.4854 353.6902 6940281 171.8249 212.3005  1.92225274   534
GUOWANG OBJECT A        
1 69572U 26137A   26190.36912648 -.00000110  00000+0  29403-4 0  9999
2 69572  49.9993 167.0911 0012557 299.3374  60.6270 13.89812603  3102
GUOWANG OBJECT B        
1 69573U 26137B   26190.65385973 -.00000214  00000+0 -55136-4 0  9995
2 69573  50.0016 165.9303 0011860 298.8434  61.1273 13.89803849  3157
GUOWANG OBJECT C        
1 69574U 26137C   26190.65276043 -.00000057  00000+0  72323-4 0  9994
2 69574  49.9962 165.9102 0011904 300.6112  59.3612 13.89815350  3152
GUOWANG OBJECT D        
1 69575U 26137D   26190.65162700 -.00000168  00000+0 -17667-4 0  9993
2 69575  49.9953 165.9027 0011086 299.2996  60.6794 13.89827781  3150
GUOWANG OBJECT E        
1 69576U 26137E   26190.65064700 -.00000214  00000+0 -55274-4 0  9993
2 69576  50.0036 165.9215 0011263 302.1342  57.8463 13.89825186  3159
GUOWANG OBJECT F        
1 69577U 26137F   26190.64981928 -.00000215  00000+0 -55984-4 0  9992
2 69577  50.0025 165.9144 0010849 302.1836  57.8010 13.89809494  3158
GUOWANG OBJECT G        
1 69578U 26137G   26190.79276060 -.00000144  00000+0  18585-5 0  9990
2 69578  49.9977 165.3173 0010810 302.3991  57.5861 13.89795125  3178
GUOWANG OBJECT H        
1 69579U 26137H   26191.00768142 -.00000175  00000+0 -23862-4 0  9991
2 69579  50.0012 164.4679 0010249 306.3680  53.6272 13.89776278  3203
GUOWANG OBJECT J        
1 69580U 26137J   26178.27848690  .00000022  00000+0  13174-3 0  9997
2 69580  49.9961 215.0979 0011832 257.3150 102.6427 13.91997107  1436
CZ-12 R/B               
1 69581U 26137K   26191.30679890  .00000031  00000+0  98074-4 0  9994
2 69581  49.9885 159.9831 0077460 192.9836 166.9077 14.11693798  3279
CENTISPACE-1 GROUP 05 O*
1 69582U 26138A   26191.44566049 -.00000154  00000+0 -51503-6 0  9998
2 69582  55.1385 195.2888 0011057 333.8191  26.2223 14.15470715  3311
CENTISPACE-1 GROUP 05 O*
1 69583U 26138B   26191.30144802 -.00000251  00000+0 -49330-4 0  9994
2 69583  55.1381 195.7932 0010015 333.8060  26.2406 14.15650892  3297
CENTISPACE-1 GROUP 05 O*
1 69585U 26138D   26191.43840464 -.00000365  00000+0 -10664-3 0  9990
2 69585  55.1385 195.2493 0009542 334.9114  25.1396 14.15920758  3315
CENTISPACE-1 GROUP 05 O*
1 69587U 26138F   26190.45003554 -.00000366  00000+0 -10716-3 0  9993
2 69587  55.1382 198.9095 0009079 337.2600  22.7971 14.15911299  3179
CENTISPACE-1 GROUP 05 O*
1 69588U 26138G   26191.43567946 -.00000407  00000+0 -12774-3 0  9995
2 69588  55.1382 195.2407 0008433 339.3306  20.7326 14.16074922  3318
SPACEMOBILE-008         
1 69589U 26139A   26190.99972059  .00000331  00000+0  35582-4 0  9999
2 69589  52.9940 158.9953 0004786  44.1815 315.9557 15.12797717  3438
SPACEMOBILE-009         
1 69590U 26139B   26190.34061313  .00000414  00000+0  40374-4 0  9999
2 69590  52.9929 161.9998 0005008  38.0005 322.1339 15.12690226  3335
SPACEMOBILE-010         
1 69591U 26139C   26190.60738348  .00000292  00000+0  33614-4 0  9991
2 69591  52.9935 160.8181 0004902  29.8087 330.3183 15.12521495  3389
KUIPER-00481            
1 69594U 26140C   26191.58022925  .00018490  00000+0  49636-3 0  9990
2 69594  51.8773 285.5071 0010904 264.7381  95.2362 15.37933276  4837
KUIPER-00490            
1 69595U 26140D   26190.61509600  .00020131  00000+0  54112-3 0  9994
2 69595  51.8782 290.2805 0006540 318.3400  41.7088 15.37868929  4681
KUIPER-00496            
1 69597U 26140F   26191.36564055  .00011083  00000+0  33772-3 0  9999
2 69597  51.8780 287.0540 0010383  37.4339 322.7368 15.34427947  4794
